ONEWEB-0574             
1 56063U 23043T   24066.45568459  .00000084  00000+0  17283-3 0  9991
2 56063  87.9227  49.7169 0001778  85.8030 274.3307 13.21826700 48266
ONEWEB-0575             
1 56064U 23043U   24067.14188072 -.00000221  00000+0 -61221-3 0  9994
2 56064  87.9096  34.3582 0002459  89.9697 270.1716 13.16593743 50398
ONEWEB-0576             
1 56065U 23043V   24066.97089710  .00000068  00000+0  14451-3 0  9994
2 56065  87.9090  34.3919 0002055  96.4062 263.7303 13.16593162 50360
ONEWEB-0577             
1 56066U 23043W   24066.97723039 -.00000048  00000+0 -15801-3 0  9994
2 56066  87.9091  34.3893 0002764  90.7027 269.4421 13.16593943 50392
ONEWEB-0578             
1 56067U 23043X   24066.97294893  .00000026  00000+0  31471-4 0  9992
2 56067  87.9232  49.6087 0001891  90.3604 269.7746 13.21825761 49204
ONEWEB-0579             
1 56068U 23043Y   24067.03916163  .00000060  00000+0  11472-3 0  9998
2 56068  87.9229  49.5962 0002107  73.5842 286.5523 13.21828175 49224
ONEWEB-0581             
1 56069U 23043Z   24067.13555533 -.00000147  00000+0 -41883-3 0  9997
2 56069  87.9093  34.3875 0002521  80.8913 279.2503 13.16593710 50383
ONEWEB-0609             
1 56070U 23043AA  24067.04053482  .00000104  00000+0  24275-3 0  9992
2 56070  87.8953  64.8282 0001826  86.5121 273.6218 13.15548131 47934
